{
  "links" : {
    "next" : "https://api.nasa.gov/neo/rest/v1/neo/browse?page=37&size=20&api_key=jqAGvNAwUIBu4fl9FSOjdm3V4F7hIglRzI6pdX9d",
    "prev" : "https://api.nasa.gov/neo/rest/v1/neo/browse?page=35&size=20&api_key=jqAGvNAwUIBu4fl9FSOjdm3V4F7hIglRzI6pdX9d",
    "self" : "https://api.nasa.gov/neo/rest/v1/neo/browse?page=36&size=20&api_key=jqAGvNAwUIBu4fl9FSOjdm3V4F7hIglRzI6pdX9d"
  },
  "page" : {
    "size" : 20,
    "total_elements" : 20750,
    "total_pages" : 1038,
    "number" : 36
  },
  "near_earth_objects" : [ {
    "links" : {
      "self" : "https://api.nasa.gov/neo/rest/v1/neo/3395983?api_key=jqAGvNAwUIBu4fl9FSOjdm3V4F7hIglRzI6pdX9d"
    },
    "neo_reference_id" : "3395983",
    "name" : "(2007 WT4)",
    "designation" : "2007 WT4",
    "nasa_jpl_url" : "http://ssd.jpl.nasa.gov/sbdb.cgi?sstr=3395983",
    "absolute_magnitude_h" : 22.5,
    "estimated_diameter" : {
      "kilometers" : {
        "estimated_diameter_min" : 0.0840533402,
        "estimated_diameter_max" : 0.1879489824
      },
      "meters" : {
        "estimated_diameter_min" : 84.0533402073,
        "estimated_diameter_max" : 187.9489824394
      },
      "miles" : {
        "estimated_diameter_min" : 0.0522283081,
        "estimated_diameter_max" : 0.1167860472
      },
      "feet" : {
        "estimated_diameter_min" : 275.7655606856,
        "estimated_diameter_max" : 616.6305395464
      }
    },
    "is_potentially_hazardous_asteroid" : false,
    "close_approach_data" : [ {
      "close_approach_date" : "2007-11-27",
      "epoch_date_close_approach" : 1196150400000,
      "relative_velocity" : {
        "kilometers_per_second" : "3.7684963249",
        "kilometers_per_hour" : "13566.5867695235",
        "miles_per_hour" : "8429.7494290964"
      },
      "miss_distance" : {
        "astronomical" : "0.3110221047",
        "lunar" : "120.9875946045",
        "kilometers" : "46528244",
        "miles" : "28911310"
      },
      "orbiting_body" : "Earth"
    } ],
    "orbital_data" : {
      "orbit_id" : "10",
      "orbit_determination_date" : "2017-04-06 09:05:02",
      "first_observation_date" : "2007-11-19",
      "last_observation_date" : "2007-12-16",
      "data_arc_in_days" : 27,
      "observations_used" : 28,
      "orbit_uncertainty" : "6",
      "minimum_orbit_intersection" : ".312378",
      "jupiter_tisserand_invariant" : "3.504",
      "epoch_osculation" : "2458600.5",
      "eccentricity" : ".4218774994172816",
      "semi_major_axis" : "2.239975994948804",
      "inclination" : "7.027228117901702",
      "ascending_node_longitude" : "228.6767544515435",
      "orbital_period" : "1224.513205754673",
      "perihelion_distance" : "1.294980523445065",
      "perihelion_argument" : "201.6221729273558",
      "aphelion_distance" : "3.184971466452542",
      "perihelion_time" : "2458109.185417566360",
      "mean_anomaly" : "144.443725755577",
      "mean_motion" : ".2939943794057577",
      "equinox" : "J2000",
      "orbit_class" : {
        "orbit_class_type" : "AMO",
        "orbit_class_range" : "1.017 AU < q (perihelion) < 1.3 AU",
        "orbit_class_description" : "Near-Earth asteroid orbits similar to that of 1221 Amor"
      }
    },
    "is_sentry_object" : false
  }, {
    "links" : {
      "self" : "https://api.nasa.gov/neo/rest/v1/neo/3397495?api_key=jqAGvNAwUIBu4fl9FSOjdm3V4F7hIglRzI6pdX9d"
    },
    "neo_reference_id" : "3397495",
    "name" : "(2007 XO)",
    "designation" : "2007 XO",
    "nasa_jpl_url" : "http://ssd.jpl.nasa.gov/sbdb.cgi?sstr=3397495",
    "absolute_magnitude_h" : 24.482,
    "estimated_diameter" : {
      "kilometers" : {
        "estimated_diameter_min" : 0.033740769,
        "estimated_diameter_max" : 0.0754466531
      },
      "meters" : {
        "estimated_diameter_min" : 33.7407690041,
        "estimated_diameter_max" : 75.4466531064
      },
      "miles" : {
        "estimated_diameter_min" : 0.0209655354,
        "estimated_diameter_max" : 0.0468803623
      },
      "feet" : {
        "estimated_diameter_min" : 110.6980645796,
        "estimated_diameter_max" : 247.5283973776
      }
    },
    "is_potentially_hazardous_asteroid" : false,
    "close_approach_data" : [ {
      "close_approach_date" : "2007-12-07",
      "epoch_date_close_approach" : 1197014400000,
      "relative_velocity" : {
        "kilometers_per_second" : "24.0807940273",
        "kilometers_per_hour" : "86690.8584983066",
        "miles_per_hour" : "53866.3281596839"
      },
      "miss_distance" : {
        "astronomical" : "0.0290697584",
        "lunar" : "11.3081359863",
        "kilometers" : "4348774",
        "miles" : "2702203"
      },
      "orbiting_body" : "Earth"
    } ],
    "orbital_data" : {
      "orbit_id" : "7",
      "orbit_determination_date" : "2017-04-06 09:04:59",
      "first_observation_date" : "2007-12-04",
      "last_observation_date" : "2007-12-04",
      "data_arc_in_days" : null,
      "observations_used" : 15,
      "orbit_uncertainty" : "9",
      "minimum_orbit_intersection" : ".0178906",
      "jupiter_tisserand_invariant" : "3.989",
      "epoch_osculation" : "2454438.5",
      "eccentricity" : ".7268195768834076",
      "semi_major_axis" : "1.59997294273929",
      "inclination" : "14.79203424817841",
      "ascending_node_longitude" : "69.78152756664554",
      "orbital_period" : "739.2092357595122",
      "perihelion_distance" : ".4370812854726187",
      "perihelion_argument" : "113.0086251803072",
      "aphelion_distance" : "2.762864600005961",
      "perihelion_time" : "2454489.088250313706",
      "mean_anomaly" : "335.3631729259684",
      "mean_motion" : ".4870069022204685",
      "equinox" : "J2000",
      "orbit_class" : {
        "orbit_class_type" : "APO",
        "orbit_class_range" : "a (semi-major axis) > 1.0 AU; q (perihelion) < 1.017 AU",
        "orbit_class_description" : "Near-Earth asteroid orbits which cross the Earth’s orbit similar to that of 1862 Apollo"
      }
    },
    "is_sentry_object" : false
  }, {
    "links" : {
      "self" : "https://api.nasa.gov/neo/rest/v1/neo/3397496?api_key=jqAGvNAwUIBu4fl9FSOjdm3V4F7hIglRzI6pdX9d"
    },
    "neo_reference_id" : "3397496",
    "name" : "(2007 XP)",
    "designation" : "2007 XP",
    "nasa_jpl_url" : "http://ssd.jpl.nasa.gov/sbdb.cgi?sstr=3397496",
    "absolute_magnitude_h" : 23.753,
    "estimated_diameter" : {
      "kilometers" : {
        "estimated_diameter_min" : 0.0472014105,
        "estimated_diameter_max" : 0.1055455625
      },
      "meters" : {
        "estimated_diameter_min" : 47.2014104933,
        "estimated_diameter_max" : 105.5455624969
      },
      "miles" : {
        "estimated_diameter_min" : 0.0293295876,
        "estimated_diameter_max" : 0.0655829517
      },
      "feet" : {
        "estimated_diameter_min" : 154.8602756029,
        "estimated_diameter_max" : 346.2781032624
      }
    },
    "is_potentially_hazardous_asteroid" : false,
    "close_approach_data" : [ {
      "close_approach_date" : "2006-12-02",
      "epoch_date_close_approach" : 1165046400000,
      "relative_velocity" : {
        "kilometers_per_second" : "11.5111616365",
        "kilometers_per_hour" : "41440.1818914403",
        "miles_per_hour" : "25749.3174647119"
      },
      "miss_distance" : {
        "astronomical" : "0.079740287",
        "lunar" : "31.0189704895",
        "kilometers" : "11928977",
        "miles" : "7412322.5"
      },
      "orbiting_body" : "Earth"
    }, {
      "close_approach_date" : "2007-11-30",
      "epoch_date_close_approach" : 1196409600000,
      "relative_velocity" : {
        "kilometers_per_second" : "8.0862740051",
        "kilometers_per_hour" : "29110.5864185289",
        "miles_per_hour" : "18088.1863221131"
      },
      "miss_distance" : {
        "astronomical" : "0.0509040017",
        "lunar" : "19.801656723",
        "kilometers" : "7615130.5",
        "miles" : "4731822.5"
      },
      "orbiting_body" : "Earth"
    } ],
    "orbital_data" : {
      "orbit_id" : "7",
      "orbit_determination_date" : "2017-04-06 09:04:59",
      "first_observation_date" : "2007-12-04",
      "last_observation_date" : "2007-12-06",
      "data_arc_in_days" : 2,
      "observations_used" : 16,
      "orbit_uncertainty" : "9",
      "minimum_orbit_intersection" : ".0199883",
      "jupiter_tisserand_invariant" : "6.106",
      "epoch_osculation" : "2454439.5",
      "eccentricity" : ".2707601147782149",
      "semi_major_axis" : ".9863128073336546",
      "inclination" : "7.650401786213624",
      "ascending_node_longitude" : "255.6741674799257",
      "orbital_period" : "357.7836049610689",
      "perihelion_distance" : ".7192586384127709",
      "perihelion_argument" : "64.6824869859926",
      "aphelion_distance" : "1.253366976254538",
      "perihelion_time" : "2454356.500227453088",
      "mean_anomaly" : "83.5139388797304",
      "mean_motion" : "1.006194792070398",
      "equinox" : "J2000",
      "orbit_class" : {
        "orbit_class_type" : "ATE",
        "orbit_class_range" : "a (semi-major axis) < 1.0 AU; q (perihelion) > 0.983 AU",
        "orbit_class_description" : "Near-Earth asteroid orbits similar to that of 2062 Aten"
      }
    },
    "is_sentry_object" : false
  } ]
}